1 44721U 19074J   23162.85928409  .00017096  00000-0  11631-2 0  9995
2 44721  53.0552   4.0106 0000484  76.0722 284.0321 15.06423212197745
1 44721U 19074J   23162.99197495  .00017757  00000-0  12070-2 0  9995
2 44721  53.0552   3.4147 0000493  73.3904 286.7139 15.06429005197938
1 44721U 19074J   23163.25736503  .00005803  00000-0  40799-3 0  9993
2 44721  53.0553   2.2235 0000568  80.9428 279.1625 15.06410754197805
1 44721U 19074J   23163.25736503  .00005803  00000-0  40799-3 0  9993
2 44721  53.0553   2.2235 0000568  80.9428 279.1625 15.06410754197973
1 44721U 19074J   23163.58910444 -.00004139  00000-0 -25918-3 0  9996
2 44721  53.0551   0.7350 0000826  82.5539 277.5544 15.06391122198026
1 44721U 19074J   23163.92084068  .00006201  00000-0  43482-3 0  9994
2 44721  53.0549 359.2458 0000908  83.8727 276.2366 15.06396793197901
1 44721U 19074J   23163.92084068  .00006201  00000-0  43482-3 0  9994
2 44721  53.0549 359.2458 0000908  83.8727 276.2366 15.06396793198070
1 44721U 19074J   23165.31412003  .00009581  00000-0  66093-3 0  9990
2 44721  53.0521 352.9902 0001226  93.5154 266.5975 15.06416563198111
1 44721U 19074J   23165.31412003  .00009581  00000-0  66093-3 0  9990
2 44721  53.0521 352.9902 0001226  93.5154 266.5975 15.06416563198289
1 44721U 19074J   23165.77855209  .00000796  00000-0  72346-4 0  9997
2 44721  53.0542 350.9062 0000708  98.1299 261.9770 15.06391476198357
1 44721U 19074J   23166.30933104  .00012749  00000-0  87329-3 0  9995
2 44721  53.0542 348.5229 0000737 102.6778 257.4293 15.06396939198269
1 44721U 19074J   23166.77375684  .00016368  00000-0  11148-2 0  9995
2 44721  53.0545 346.4382 0000687  97.0765 263.0302 15.06412681198331
1 44721U 19074J   23166.77375684  .00016368  00000-0  11148-2 0  9995
2 44721  53.0545 346.4382 0000687  97.0765 263.0302 15.06412681198500
1 44721U 19074J   23167.50356811  .00027273  00000-0  18403-2 0  9996
2 44721  53.0546 343.1640 0003734  59.8827 300.2532 15.06446216198446
1 44721U 19074J   23167.56992217  .00007999  00000-0  55524-3 0  9997
2 44721  53.0546 342.8639 0001072  93.9719 266.1393 15.06404173198623
1 44721U 19074J   23167.76896408  .00007995  00000-0  55497-3 0  9999
2 44721  53.0547 341.9702 0000702  77.8474 282.2593 15.06400248198487
1 44721U 19074J   23167.96800504  .00011644  00000-0  79923-3 0  9999
2 44721  53.0549 341.0766 0000731  77.7949 282.3122 15.06403716198682
1 44721U 19074J   23168.49877510  .00017075  00000-0  11618-2 0  9999
2 44721  53.0550 338.6938 0000708  71.3647 288.7419 15.06420116198598
1 44721U 19074J   23168.76415639  .00017646  00000-0  11995-2 0  9991
2 44721  53.0551 337.5026 0000711  70.0595 290.0471 15.06432048198633
1 44721U 19074J   23169.16224007 -.00013432  00000-0 -88480-3 0  9998
2 44721  53.0556 335.7152 0000943  78.4008 281.7087 15.06390698198865
1 44721U 19074J   23169.75936642  .00000485  00000-0  51422-4 0  9997
2 44721  53.0551 333.0350 0000727  74.5847 285.5222 15.06389327198780
1 44721U 19074J   23169.89206461  .00017866  00000-0  12158-2 0  9993
2 44721  53.0552 332.4394 0000980  70.3735 289.7359 15.06383140198978
1 44721U 19074J   23170.42283871  .00020489  00000-0  13901-2 0  9996
2 44721  53.0549 330.0567 0000935  81.5948 278.5147 15.06408413198882
1 44721U 19074J   23171.15264855 -.00005254  00000-0 -33422-3 0  9994
2 44721  53.0551 326.7800 0000919 132.2357 227.8710 15.06388654199166
1 44721U 19074J   23171.41804161  .00015951  00000-0  10881-2 0  9999
2 44721  53.0545 325.5889 0001208 125.0793 235.0309 15.06372893199038
1 44721U 19074J   23171.81612612  .00026811  00000-0  18123-2 0  9995
2 44721  53.0550 323.8027 0000854  93.6749 266.4338 15.06393874199094
1 44721U 19074J   23171.81612612  .00026811  00000-0  18123-2 0  9995
2 44721  53.0550 323.8027 0000854  93.6749 266.4338 15.06393874199263
1 44721U 19074J   23172.41324278  .00025823  00000-0  17450-2 0  9994
2 44721  53.0553 321.1219 0000854  90.4578 269.6509 15.06424685199186
1 44721U 19074J   23172.67862386  .00025996  00000-0  17559-2 0  9990
2 44721  53.0551 319.9306 0000787  87.6902 272.4177 15.06437656199220
1 44721U 19074J   23173.14305241  .00014376  00000-0  98158-3 0  9990
2 44721  53.0553 317.8444 0000907  84.3782 275.7310 15.06417065199469
1 44721U 19074J   23173.40844648  .00017266  00000-0  11750-2 0  9991
2 44721  53.0553 316.6544 0002255  78.7509 281.3733 15.06404534199503
1 44721U 19074J   23173.67383772  .00023511  00000-0  15930-2 0  9990
2 44721  53.0555 315.4638 0000924  56.1755 303.9321 15.06377645199540
1 44721U 19074J   23175.06712776 -.00011143  00000-0 -73034-3 0  9995
2 44721  53.0545 309.2040 0003643  80.6673 279.4727 15.06391429199755
1 44721U 19074J   23175.66424695  .00028479  00000-0  19236-2 0  9992
2 44721  53.0547 306.5289 0001013  67.8740 292.2356 15.06390256199841
1 44721U 19074J   23176.72578047  .00027761  00000-0  18728-2 0  9999
2 44721  53.0544 301.7639 0001061  60.7786 299.3309 15.06449417200000
1 44721U 19074J   23177.38926025  .00016713  00000-0  11384-2 0  9991
2 44721  53.0540 298.7852 0000948  83.4213 276.6884 15.06393830200102
1 44721U 19074J   23177.65465519  .00019124  00000-0  13004-2 0  9997
2 44721  53.0542 297.5942 0000851  89.6938 270.4149 15.06368362200148
1 44721U 19074J   23179.31333336  .00005925  00000-0  41629-3 0  9992
2 44721  53.0544 290.1496 0001037  94.0988 266.0120 15.06400855200396
1 44721U 19074J   23179.57872388  .00004338  00000-0  30999-3 0  9990
2 44721  53.0537 288.9562 0000822  84.7095 275.3987 15.06393581200439
1 44721U 19074J   23180.44121708  .00007111  00000-0  49550-3 0  9996
2 44721  53.0545 285.0842 0000715  90.2170 269.8901 15.06421734200564
1 44721U 19074J   23182.29892775  .00014374  00000-0  98169-3 0  9999
2 44721  53.0552 276.7447 0001027  88.0143 272.0963 15.06408235200848
1 44721U 19074J   23182.96239396  .00004077  00000-0  29243-3 0  9993
2 44721  53.0533 273.7609 0001012  70.6792 289.4307 15.06401740200944
1 44721U 19074J   23183.42682661 -.00002372  00000-0 -14048-3 0  9997
2 44721  53.0550 271.6821 0001048  95.4813 264.6295 15.06388714201019
1 44721U 19074J   23184.48837717  .00013505  00000-0  92356-3 0  9994
2 44721  53.0539 266.9160 0000873  98.2092 261.8996 15.06410157201175
1 44721U 19074J   23185.48358698  .00003089  00000-0  22619-3 0  9992
2 44721  53.0538 262.4481 0000873 102.1373 257.9714 15.06391517201327
1 44721U 19074J   23186.61148409  .00008973  00000-0  62035-3 0  9998
2 44721  53.0547 257.3850 0000971  72.0516 288.0579 15.06408116201499
1 44721U 19074J   23187.47399629  .00003326  00000-0  24206-3 0  9990
2 44721  53.0534 253.5132 0000854  68.3597 291.7483 15.06400124201624
1 44721U 19074J   23188.53553742  .00009029  00000-0  62395-3 0  9993
2 44721  53.0533 248.7477 0000953  70.5695 289.5397 15.06420218201787
1 44721U 19074J   23188.86727185  .00000939  00000-0  81862-4 0  9995
2 44721  53.0547 247.2603 0000713  89.2735 270.8335 15.06405710201834
1 44721U 19074J   23189.33170354  .00000358  00000-0  42956-4 0  9994
2 44721  53.0548 245.1741 0001234  89.0775 271.0355 15.06399121201907
1 44721U 19074J   23190.58334491  .00031250  00000-0  21093-2 0  9999
2 44721  53.0527 239.5557 0000838  66.3270 245.2458 15.06369399202095
1 44721U 19074J   23191.12307100  .00001355  00000-0  10983-3 0  9997
2 44721  53.0540 237.1311 0000844  77.1688 282.9395 15.06392916202170
1 44721U 19074J   23192.11826525  .00001359  00000-0  11009-3 0  9998
2 44721  53.0539 232.6630 0000796  75.9313 284.1764 15.06404424202328
1 44721U 19074J   23193.11347636  .00000518  00000-0  53685-4 0  9993
2 44721  53.0539 228.1956 0000902  75.4353 284.6736 15.06393278202471
1 44721U 19074J   23194.50675370  .00001454  00000-0  11647-3 0  9997
2 44721  53.0535 221.9411 0000980  84.9762 275.1339 15.06403045202680
1 44721U 19074J   23195.36927136  .00000444  00000-0  48694-4 0  9993
2 44721  53.0532 218.0689 0001046  74.0295 286.0809 15.06391444202813
1 44721U 19074J   23196.36447156  .00000956  00000-0  83076-4 0  9994
2 44721  53.0542 213.6008 0000996  77.4196 282.6904 15.06401061202961
1 44721U 19074J   23197.02794459  .00001224  00000-0  10104-3 0  9999
2 44721  53.0543 210.6229 0000982  78.8898 281.2201 15.06394429203069
1 44721U 19074J   23198.75295668  .00001541  00000-0  12228-3 0  9999
2 44721  53.0541 202.8787 0000961  77.9921 282.1176 15.06403631203329
1 44721U 19074J   23199.01835041  .00001027  00000-0  87856-4 0  9993
2 44721  53.0538 201.6873 0000952  77.7217 282.3879 15.06396281203362
1 44721U 19074J   23200.21258611  .00001108  00000-0  93274-4 0  9991
2 44721  53.0541 196.3260 0001012  79.7171 280.3932 15.06406343203544
1 44721U 19074J   23202.00395514  .00000679  00000-0  64465-4 0  9996
2 44721  53.0546 188.2854 0001121  86.4749 273.6368 15.06402021203812
1 44721U 19074J   23205.32130922 -.00000510  00000-0 -15364-4 0  9994
2 44721  53.0536 173.3909 0001552  95.8845 264.2321 15.06385962204142
1 44721U 19074J   23206.31648962 -.00000103  00000-0  11953-4 0  9999
2 44721  53.0555 168.9239 0001087 123.8453 236.2640 15.06413251204291
1 44721U 19074J   23207.31173720  .00009962  00000-0  68789-3 0  9994
2 44721  53.0547 164.4551 0001841  88.0559 272.0641 15.06337120204443
1 44721U 19074J   23208.10786268  .00000006  00000-0  19315-4 0  9991
2 44721  53.0542 160.8864 0002169  82.1093 278.0143 15.06414651204737
1 44721U 19074J   23208.24054717  .00001825  00000-0  14129-3 0  9990
2 44721  53.0549 160.2886 0002046  87.5216 272.6007 15.06420905204752
1 44721U 19074J   23208.57229640  .00001994  00000-0  15275-3 0  9995
2 44721  53.0543 158.7983 0001478  89.0298 271.0861 15.06394587204635
1 44721U 19074J   23208.57229640  .00001994  00000-0  15275-3 0  9995
2 44721  53.0543 158.7983 0001478  89.0298 271.0861 15.06394587204804
1 44721U 19074J   23209.03674807 -.00001189  00000-0 -60965-4 0  9991
2 44721  53.0547 156.7148 0001386  92.4480 267.6667 15.06372544204879
1 44721U 19074J   23209.30212804 -.00002619  00000-0 -15707-3 0  9998
2 44721  53.0537 155.5227 0001464  87.8280 272.2877 15.06377438204913
